CZ-4B R/B               
1 28059U 03049C   18025.47669663 -.00000030  00000-0  48512-5 0  9992
2 28059  98.5365 280.5009 0049061 289.6237 176.8029 14.52515714755941
CZ-2C R/B               
1 28222U 04012C   18025.46858359  .00000237  00000-0  18419-4 0  9996
2 28222  97.5566 343.2110 0048911 142.1457 332.6952 15.09573475754144
SL-16 R/B               
1 28353U 04021B   18024.89454837  .00000228  00000-0  14435-3 0  9993
2 28353  71.0016 333.5016 0006851 234.4276 125.6209 14.14201603703509
CZ-2C R/B               
1 28480U 04046B   18024.89233771  .00000008  00000-0  18954-4 0  9990
2 28480  98.1884 111.7581 0140798 290.4287 180.6285 14.25664063685801
ARIANE 5 R/B            
1 28499U 04049H   18024.83952884  .00000028  00000-0  11010-4 0  9998
2 28499  98.0659 113.9990 0091577 219.1368 251.9550 14.79876491706772
CZ-2D R/B               
1 28738U 05024B   18025.53588420  .00000282  00000-0  20423-4 0  9997
2 28738  97.4721  62.7458 0011127 325.6446  34.4063 15.11426622689399
SUZAKU (ASTRO-EII)      
1 28773U 05025A   18024.14796029  .00000862  00000-0  38986-4 0  9996
2 28773  31.3833 302.9786 0004437  45.3144 314.7864 15.16326487690915
ALOS (DAICHI)           
1 28931U 06002A   18025.50849923  .00000107  00000-0  29750-4 0  9992
2 28931  97.8273  46.5351 0001765  44.5122 315.6227 14.62451067639956
H-2A R/B                
1 28932U 06002B   18024.81148965  .00000145  00000-0  19975-4 0  9994
2 28932  98.2207 321.7715 0088533 305.8355 109.0861 14.91615823650844
AKARI (ASTRO-F)         
1 28939U 06005A   18024.84272408  .00001913  00000-0  58682-4 0  9999
2 28939  98.2282 254.9007 0104186 136.2291 224.7266 15.30122766646979
RESURS-DK 1             
1 29228U 06021A   18025.17571864  .00000027  00000-0  94214-5 0  9991
2 29228  69.9343 253.2420 0005549 326.6267  33.4543 15.02276156641437
GENESIS 1               
1 29252U 06029A   18024.85664415  .00000219  00000-0  21285-4 0  9995
2 29252  64.5061 281.3372 0036508 302.7475  57.0130 15.17167516635459
CZ-4B R/B               
1 29507U 06046C   18025.52080133  .00000773  00000-0  65128-4 0  9990
2 29507  97.7897  38.2190 0051645 218.0127 141.7448 15.00254912614376
CZ-2C R/B               
1 31114U 07010B   18024.70805813 -.00000042  00000-0 -47162-6 0  9999
2 31114  98.3800 280.4594 0058737 292.9150  66.5834 14.19263469558937
COSMO-SKYMED 1          
1 31598U 07023A   18025.48580267  .00000289  00000-0  42896-4 0  9996
2 31598  97.8879 211.0218 0001418  86.2240 273.9151 14.82156987575373
GENESIS 2               
1 31789U 07028A   18024.87701946  .00000335  00000-0  27396-4 0  9994
2 31789  64.5052 320.0180 0007006 250.7509 109.2856 15.16411584582526
COSMOS 2428             
1 31792U 07029A   18025.16887859  .00000334  00000-0  20658-3 0  9992
2 31792  70.9468 306.3157 0010828 292.9118  67.0859 14.12433364545419
SL-16 R/B               
1 31793U 07029B   18024.87298671 -.00000266  00000-0 -11376-3 0  9991
2 31793  70.9762 283.5051 0002543 262.2315 166.3995 14.14396125546061
KORONAS-FOTON           
1 33504U 09003A   18024.43809749  .00000707  00000-0  35872-4 0  9999
2 33504  82.4421  13.0823 0020916  67.3483 292.9958 15.15067598494877
TIANGONG 1              
1 37820U 11053A   18025.21003679  .00067755  10266-4  12438-3 0  9994
2 37820  42.7508 262.4068 0019248 242.5047 258.8222 16.00614900363260
H-2A R/B                
1 38341U 12025E   18024.85498416  .00000116  00000-0  21092-4 0  9995
2 38341  98.4213 119.1138 0056266 164.1167 196.1826 14.83701887307744
CUSAT 2 & FALCON 9 R/B  
1 39271U 13055G   18024.76482965  .00003520  00000-0  90206-4 0  9999
2 39271  80.9689 122.2247 0620878 265.3042  87.7022 14.39925345224488
ALOS-2                  
1 39766U 14029A   18025.49180940  .00000160  00000-0  28300-4 0  9992
2 39766  97.9200 124.6338 0001589  83.6931 276.4462 14.79473292198478
SL-27 R/B               
1 40354U 14084B   18024.83919439  .00000918  00000-0  24655-4 0  9998
2 40354  74.7380  35.6229 0040606 304.9048  54.8350 15.38790545173540
ASTRO-H (HITOMI)        
1 41337U 16012A   18025.55887166  .00000242  00000-0  12834-4 0  9990
2 41337  31.0052 149.5664 0012338  76.6439 283.5571 14.98422019106309
TIANGONG-2              
1 41765U 16057A   18025.53429910  .00003900  00000-0  51102-4 0  9996
2 41765  42.7832 113.0611 0004125 327.9303 106.5933 15.60199688 77692
SHENZHOU-11 MODULE      
1 41868U 16061G   18024.66611289  .00007610  00000-0  65577-4 0  9993
2 41868  42.7942 100.2567 0002890 237.6325 252.7845 15.69739858 67709
